NORAD_CAT_ID,OBJECT_NAME,OBJECT_TYPE,EPOCH,MEAN_MOTION,ECCENTRICITY,INCLINATION,RA_OF_ASC_NODE,ARG_OF_PERICENTER,MEAN_ANOMALY,BSTAR,MEAN_MOTION_DOT,MEAN_MOTION_DDOT,TLE_LINE0,TLE_LINE1,TLE_LINE2,SEMIMAJOR_AXIS,PERIOD,APOGEE,PERIGEE,DECAYED
52542.0,STARLINK-3937,PAYLOAD,2024-07-02 21:45:24,15.08845974,9.78e-05,53.2167,8.9881,98.698,261.4123,7.5307e-05,9.11e-06,0.0,0 STARLINK-3937,1 52542U 22051K   24184.90653871  .00000911  00000-0  75307-4 0  9993,2 52542  53.2167   8.9881 0000978  98.6980 261.4123 15.08845974118631,6917.862,95.437,540.404,539.051,0.0
52542.0,STARLINK-3937,PAYLOAD,2024-07-03 18:25:26,15.08838059,0.0001057,53.2176,5.124,97.0178,263.0935,5.5027e-05,5.88e-06,0.0,0 STARLINK-3937,1 52542U 22051K   24185.76766499  .00000588  00000-0  55027-4 0  9996,2 52542  53.2176   5.1240 0001057  97.0178 263.0935 15.08838059118837,6917.886,95.438,540.483,539.02,0.0
52542.0,STARLINK-3937,PAYLOAD,2024-07-03 21:36:12,15.0884454,0.0001149,53.2166,4.5287,103.5431,256.5689,0.00016021,2.263e-05,0.0,0 STARLINK-3937,1 52542U 22051K   24185.90014146  .00002263  00000-0  16021-3 0  9999,2 52542  53.2166   4.5287 0001149 103.5431 256.5689 15.08844540118786,6917.867,95.437,540.526,538.937,0.0
52542.0,STARLINK-3937,PAYLOAD,2024-07-04 15:05:26,15.08839877,0.0001248,53.2133,1.2586,115.3483,244.7638,0.0001376,1.903e-05,0.0,0 STARLINK-3937,1 52542U 22051K   24186.62878459  .00001903  00000-0  13760-3 0  9991,2 52542  53.2133   1.2586 0001248 115.3483 244.7638 15.08839877118896,6917.881,95.438,540.609,538.882,0.0
52542.0,STARLINK-3937,PAYLOAD,2024-07-04 18:16:13,15.08843005,0.00012,53.2165,0.6659,103.4229,256.6897,0.00020195,2.928e-05,0.0,0 STARLINK-3937,1 52542U 22051K   24186.76126399  .00002928  00000-0  20195-3 0  9993,2 52542  53.2165   0.6659 0001200 103.4229 256.6897 15.08843005118919,6917.871,95.437,540.566,538.906,0.0
52542.0,STARLINK-3937,PAYLOAD,2024-07-05 18:07:00,15.08847101,7.62e-05,53.2155,356.2095,73.7933,286.3143,0.00015578,2.193e-05,0.0,0 STARLINK-3937,1 52542U 22051K   24187.75486418  .00002193  00000-0  15578-3 0  9997,2 52542  53.2155 356.2095 0000762  73.7933 286.3143 15.08847101119135,6917.859,95.437,540.251,539.197,0.0
52542.0,STARLINK-3937,PAYLOAD,2024-07-05 21:17:46,15.08851619,8.99e-05,53.2166,355.6119,82.0357,278.0737,0.00028634,4.274e-05,0.0,0 STARLINK-3937,1 52542U 22051K   24187.88734238  .00004274  00000-0  28634-3 0  9996,2 52542  53.2166 355.6119 0000899  82.0357 278.0737 15.08851619119081,6917.845,95.437,540.332,539.088,0.0
52542.0,STARLINK-3937,PAYLOAD,2024-07-06 11:36:15,15.08838986,0.0001563,53.2176,352.9362,92.817,267.3001,8.1917e-05,1.016e-05,0.0,0 STARLINK-3937,1 52542U 22051K   24188.48350802  .00001016  00000-0  81917-4 0  9999,2 52542  53.2176 352.9362 0001563  92.8170 267.3001 15.08838986119248,6917.883,95.438,540.83,538.667,0.0
52542.0,STARLINK-3937,PAYLOAD,2024-07-06 14:47:01,15.08839145,0.0001455,53.2178,352.3418,109.644,250.4709,6.4294e-05,7.35e-06,0.0,0 STARLINK-3937,1 52542U 22051K   24188.61598703  .00000735  00000-0  64294-4 0  9994,2 52542  53.2178 352.3418 0001455 109.6440 250.4709 15.08839145119193,6917.883,95.438,540.755,538.741,0.0
52542.0,STARLINK-3937,PAYLOAD,2024-07-06 17:57:47,15.0884002,0.0001196,53.2187,351.7491,96.1339,263.979,9.7614e-05,1.266e-05,0.0,0 STARLINK-3937,1 52542U 22051K   24188.74846791  .00001266  00000-0  97614-4 0  9993,2 52542  53.2187 351.7491 0001196  96.1339 263.9790 15.08840020119212,6917.88,95.438,540.573,538.918,0.0
52542.0,STARLINK-3937,PAYLOAD,2024-07-07 03:30:06,15.08837627,0.0001123,53.218,349.9653,94.5673,265.5448,4.0909e-05,3.63e-06,0.0,0 STARLINK-3937,1 52542U 22051K   24189.14590983  .00000363  00000-0  40909-4 0  9999,2 52542  53.2180 349.9653 0001123  94.5673 265.5448 15.08837627119270,6917.888,95.438,540.53,538.976,0.0
52542.0,STARLINK-3937,PAYLOAD,2024-07-07 19:23:57,15.08851114,0.0001216,53.2186,346.9919,93.0328,267.0803,0.00037426,5.675e-05,0.0,0 STARLINK-3937,1 52542U 22051K   24189.80830633  .00005675  00000-0  37426-3 0  9991,2 52542  53.2186 346.9919 0001216  93.0328 267.0803 15.08851114119440,6917.846,95.437,540.553,538.87,0.0
52542.0,STARLINK-3937,PAYLOAD,2024-07-08 03:20:53,15.08842646,0.000118,53.2171,345.4987,76.4553,283.6571,0.00019023,2.741e-05,0.0,0 STARLINK-3937,1 52542U 22051K   24190.13950822  .00002741  00000-0  19023-3 0  9996,2 52542  53.2171 345.4987 0001180  76.4553 283.6571 15.08842646119499,6917.872,95.437,540.554,538.921,0.0
52542.0,STARLINK-3937,PAYLOAD,2024-07-08 14:28:35,15.08843802,0.0001423,53.218,343.4175,84.9688,275.1466,0.00017719,2.533e-05,0.0,0 STARLINK-3937,1 52542U 22051K   24190.60318807  .00002533  00000-0  17719-3 0  9998,2 52542  53.2180 343.4175 0001423  84.9688 275.1466 15.08843802119493,6917.869,95.437,540.718,538.749,0.0
52542.0,STARLINK-3937,PAYLOAD,2024-07-08 19:14:44,15.08850849,0.00012,53.2183,342.5292,87.6939,272.4191,0.00027437,4.083e-05,0.0,0 STARLINK-3937,1 52542U 22051K   24190.80190549  .00004083  00000-0  27437-3 0  9991,2 52542  53.2183 342.5292 0001200  87.6939 272.4191 15.08850849119526,6917.847,95.437,540.542,538.882,0.0
52542.0,STARLINK-3937,PAYLOAD,2024-07-09 09:33:12,15.08844431,0.0001235,53.2178,339.8478,82.4791,277.6342,0.00011404,1.528e-05,0.0,0 STARLINK-3937,1 52542U 22051K   24191.39806619  .00001528  00000-0  11404-3 0  9996,2 52542  53.2178 339.8478 0001235  82.4791 277.6342 15.08844431119684,6917.867,95.437,540.586,538.877,0.0
52542.0,STARLINK-3937,PAYLOAD,2024-07-09 14:19:21,15.08857958,0.0001275,53.2194,338.962,84.5625,275.5512,0.00033307,5.019e-05,0.0,0 STARLINK-3937,1 52542U 22051K   24191.59677978  .00005019  00000-0  33307-3 0  9997,2 52542  53.2194 338.9620 0001275  84.5625 275.5512 15.08857958119644,6917.825,95.436,540.573,538.808,0.0
52542.0,STARLINK-3937,PAYLOAD,2024-07-09 17:30:07,15.08866889,9.1e-05,53.2169,338.3658,90.5905,269.5192,0.00057725,8.918e-05,0.0,0 STARLINK-3937,1 52542U 22051K   24191.72925546  .00008918  00000-0  57725-3 0  9990,2 52542  53.2169 338.3658 0000910  90.5905 269.5192 15.08866889119734,6917.798,95.436,540.293,539.034,0.0
52542.0,STARLINK-3937,PAYLOAD,2024-07-10 03:02:26,15.08846542,0.0001007,53.2197,336.5774,104.3839,255.7265,-2.4274e-05,-6.74e-06,0.0,0 STARLINK-3937,1 52542U 22051K   24192.12669788 -.00000674  00000-0 -24274-4 0  9995,2 52542  53.2197 336.5774 0001007 104.3839 255.7265 15.08846542119790,6917.86,95.437,540.422,539.029,0.0
52542.0,STARLINK-3937,PAYLOAD,2024-07-10 18:56:18,15.08831589,0.0001076,53.2172,333.6062,106.86,253.251,-0.0001342,-2.422e-05,0.0,0 STARLINK-3937,1 52542U 22051K   24192.78910667 -.00002422  00000-0 -13420-3 0  9995,2 52542  53.2172 333.6062 0001076 106.8600 253.2510 15.08831589119892,6917.906,95.438,540.515,539.027,0.0
52542.0,STARLINK-3937,PAYLOAD,2024-07-11 14:00:56,15.0884018,0.0001154,53.217,330.0413,92.6562,267.4562,0.00060465,9.348e-05,0.0,0 STARLINK-3937,1 52542U 22051K   24193.58399184  .00009348  00000-0  60465-3 0  9992,2 52542  53.2170 330.0413 0001154  92.6562 267.4562 15.08840180119944,6917.88,95.438,540.543,538.947,0.0
52542.0,STARLINK-3937,PAYLOAD,2024-07-12 13:51:44,15.08842401,0.0001272,53.2183,325.5816,90.1532,269.9606,0.00031451,4.721e-05,0.0,0 STARLINK-3937,1 52542U 22051K   24194.57759443  .00004721  00000-0  31451-3 0  9993,2 52542  53.2183 325.5816 0001272  90.1532 269.9606 15.08842401120165,6917.873,95.437,540.618,538.858,0.0
52542.0,STARLINK-3937,PAYLOAD,2024-07-13 13:42:31,15.08842967,0.0001307,53.2175,321.1181,111.5079,248.6053,0.00017335,2.472e-05,0.0,0 STARLINK-3937,1 52542U 22051K   24195.57119341  .00002472  00000-0  17335-3 0  9997,2 52542  53.2175 321.1181 0001307 111.5079 248.6053 15.08842967120310,6917.871,95.437,540.64,538.832,0.0
52542.0,STARLINK-3937,PAYLOAD,2024-07-13 15:17:54,15.08846994,0.0001243,53.2174,320.8228,105.5571,254.5558,0.00018582,2.671e-05,0.0,0 STARLINK-3937,1 52542U 22051K   24195.63743215  .00002671  00000-0  18582-3 0  9993,2 52542  53.2174 320.8228 0001243 105.5571 254.5558 15.08846994120259,6917.859,95.437,540.584,538.864,0.0
52542.0,STARLINK-3937,PAYLOAD,2024-07-13 18:28:40,15.0884567,0.0001073,53.2176,320.23,94.6637,265.4478,0.00016773,2.383e-05,0.0,0 STARLINK-3937,1 52542U 22051K   24195.76991273  .00002383  00000-0  16773-3 0  9996,2 52542  53.2176 320.2300 0001073  94.6637 265.4478 15.08845670120272,6917.863,95.437,540.47,538.986,0.0
52542.0,STARLINK-3937,PAYLOAD,2024-07-14 00:50:13,15.08835767,6.49e-05,53.2152,319.0349,83.4544,276.6522,4.1645e-05,3.75e-06,0.0,0 STARLINK-3937,1 52542U 22051K   24196.03487789  .00000375  00000-0  41645-4 0  9995,2 52542  53.2152 319.0349 0000649  83.4544 276.6522 15.08835767120388,6917.893,95.438,540.207,539.309,0.0
52542.0,STARLINK-3937,PAYLOAD,2024-07-14 15:08:41,15.08852165,7.52e-05,53.2153,316.3616,80.8473,279.2604,0.0004192,6.392e-05,0.0,0 STARLINK-3937,1 52542U 22051K   24196.63103518  .00006392  00000-0  41920-3 0  9996,2 52542  53.2153 316.3616 0000752  80.8473 279.2604 15.08852165120407,6917.843,95.437,540.228,539.188,0.0
52542.0,STARLINK-3937,PAYLOAD,2024-07-15 13:24:05,15.08850073,0.0001226,53.2183,312.202,101.8349,258.278,0.00031337,4.704e-05,0.0,0 STARLINK-3937,1 52542U 22051K   24197.55839463  .00004704  00000-0  31337-3 0  9999,2 52542  53.2183 312.2020 0001226 101.8349 258.2780 15.08850073120618,6917.85,95.437,540.563,538.866,0.0
52542.0,STARLINK-3937,PAYLOAD,2024-07-16 13:14:52,15.08844322,0.0001083,53.2178,307.7369,85.7575,274.3541,6.9563e-06,-1.77e-06,0.0,0 STARLINK-3937,1 52542U 22051K   24198.55199308 -.00000177  00000-0  69563-5 0  9992,2 52542  53.2178 307.7369 0001083  85.7575 274.3541 15.08844322120769,6917.867,95.437,540.481,538.983,0.0
52542.0,STARLINK-3937,PAYLOAD,2024-07-16 14:50:14,15.08856599,7.55e-05,53.2165,307.4408,97.6828,262.425,0.00026648,3.958e-05,0.0,0 STARLINK-3937,1 52542U 22051K   24198.61822695  .00003958  00000-0  26648-3 0  9995,2 52542  53.2165 307.4408 0000755  97.6828 262.4250 15.08856599120702,6917.83,95.437,540.217,539.172,0.0
